[{"OBJECT_NAME":"STARLINK-34125","OBJECT_ID":"2025-095M","EPOCH":"2026-03-09T08:04:21.353664","MEAN_MOTION":15.27572041,"ECCENTRICITY":0.00021463,"INCLINATION":43.0009,"RA_OF_ASC_NODE":178.2222,"ARG_OF_PERICENTER":280.6774,"MEAN_ANOMALY":79.3836,"EPHEMERIS_TYPE":0,"CLASSIFICATION_TYPE":"U","NORAD_CAT_ID":63901,"ELEMENT_SET_NO":999,"REV_AT_EPOCH":4772,"BSTAR":0.0011652717,"MEAN_MOTION_DOT":0.00031936,"MEAN_MOTION_DDOT":0},{"OBJECT_NAME":"THOR AGENA B DEB","OBJECT_ID":"1965-098G","EPOCH":"2026-03-09T23:22:06.853152","MEAN_MOTION":13.57256453,"ECCENTRICITY":0.07679635,"INCLINATION":79.6109,"RA_OF_ASC_NODE":51.0692,"ARG_OF_PERICENTER":143.4347,"MEAN_ANOMALY":222.1845,"EPHEMERIS_TYPE":0,"CLASSIFICATION_TYPE":"U","NORAD_CAT_ID":1951,"ELEMENT_SET_NO":999,"REV_AT_EPOCH":79416,"BSTAR":0.00077607754,"MEAN_MOTION_DOT":4.232e-5,"MEAN_MOTION_DDOT":0}]
